STARLINK-1357_new
1 15565C 20025AL  21326.14896873 -.00016468  00000-0 -11033-2 0  3265
2 15565  53.0533 288.0765 0001631  66.4271 239.1896 15.06418401    18
STARLINK-1357_old
1 25565C 20025AL  21325.11671294  .00000628  00000-0  42051-4 0  3253
2 25565  53.0532 292.7105 0001574  67.5379  37.0173 15.06396721    17
